ONEWEB-0545             
1 54647U 22166F   26016.64627644  .00000077  00000+0  15384-3 0  9994
2 54647  87.9215 274.2155 0002104  73.1809 286.9556 13.21825655151489
ONEWEB-0580             
1 54648U 22166G   26016.46853561  .00000002  00000+0 -26010-4 0  9992
2 54648  87.9217 274.2501 0001971  76.7177 283.4177 13.21829249151502
ONEWEB-0582             
1 54649U 22166H   26016.43563983  .00000063  00000+0  12012-3 0  9998
2 54649  87.9221 274.2493 0002064  72.5502 287.5857 13.21825421151472
ONEWEB-0583             
1 54650U 22166J   26016.44715933 -.00000020  00000+0 -79216-4 0  9990
2 54650  87.9217 274.2709 0001679  73.4775 286.6544 13.21825106151486
ONEWEB-0584             
1 54651U 22166K   26016.46691329 -.00000042  00000+0 -13201-3 0  9990
2 54651  87.9219 274.2542 0001908  78.9093 281.2255 13.21825866151474
ONEWEB-0585             
1 54652U 22166L   26016.41587620  .00000075  00000+0  15047-3 0  9998
2 54652  87.9219 274.2492 0001472  79.3170 280.8130 13.21828401151471
ONEWEB-0586             
1 54653U 22166M   26016.42904387  .00000130  00000+0  28433-3 0  9998
2 54653  87.9217 274.2712 0001715  73.3301 286.8021 13.21828748151474
ONEWEB-0587             
1 54654U 22166N   26016.43892809  .00000047  00000+0  82171-4 0  9992
2 54654  87.9227 274.2285 0001251  84.3698 275.7579 13.21825529151634
